0 SL-8 R/B
1 04800U 70108B   13281.79554461 -.00000058  00000-0 -34705-4 0  5808
2 04800 074.0190 115.5261 0008447 114.2774 245.9231 13.78529237153917
0 SL-8 R/B
1 04800U 70108B   13283.82746832 -.00000058  00000-0 -34967-4 0  5810
2 04800 074.0192 112.1313 0008440 109.9998 250.2033 13.78529289154199
0 SL-8 R/B
1 04800U 70108B   13286.07709798 -.00000058  00000-0 -35063-4 0  5829
2 04800 074.0194 108.3728 0008434 105.2192 254.9863 13.78529513154503
0 SL-8 R/B
1 04800U 70108B   13288.47186381  .00000022  00000-0  43965-4 0  5832
2 04800 074.0198 104.3730 0008399 100.7192 259.4876 13.78530284154833
0 SL-8 R/B
1 04800U 70108B   13290.64892157  .00000105  00000-0  12595-3 0  5846
2 04800 074.0202 100.7357 0008308 096.4057 263.8011 13.78531271155136
0 SL-8 R/B
1 04800U 70108B   13292.75340985  .00000169  00000-0  18888-3 0  5859
2 04800 074.0205 097.2199 0008383 091.6953 268.5129 13.78531631155422
0 SL-8 R/B
1 04800U 70108B   13294.78532893  .00000172  00000-0  19193-3 0  5860
2 04800 074.0208 093.8255 0008401 087.3534 272.8549 13.78532152155702
